{"fetched_at":"2026-07-13T07:48:46.901Z","source":"https://celestrak.org/NORAD/elements/gp.php?NAME=STRIX&FORMAT=JSON","constellation":"synspective","records":[{"OBJECT_NAME":"STRIX-1","OBJECT_ID":"2022-113A","EPOCH":"2026-07-12T20:15:41.492736","CLASSIFICATION_TYPE":"U","MEAN_MOTION":15.40935236,"ECCENTRICITY":0.0005396,"INCLINATION":97.4486,"RA_OF_ASC_NODE":256.3432,"ARG_OF_PERICENTER":138.2337,"MEAN_ANOMALY":221.9322,"EPHEMERIS_TYPE":0,"NORAD_CAT_ID":53815,"ELEMENT_SET_NO":999,"REV_AT_EPOCH":21139,"BSTAR":0.00045871,"MEAN_MOTION_DOT":0.00018819,"MEAN_MOTION_DDOT":0},{"OBJECT_NAME":"STRIX-3","OBJECT_ID":"2024-047A","EPOCH":"2026-07-12T20:37:45.962400","CLASSIFICATION_TYPE":"U","MEAN_MOTION":15.19789468,"ECCENTRICITY":0.0012234,"INCLINATION":97.6628,"RA_OF_ASC_NODE":169.9221,"ARG_OF_PERICENTER":343.4364,"MEAN_ANOMALY":16.6469,"EPHEMERIS_TYPE":0,"NORAD_CAT_ID":59224,"ELEMENT_SET_NO":999,"REV_AT_EPOCH":12864,"BSTAR":0.00026693,"MEAN_MOTION_DOT":0.00005653,"MEAN_MOTION_DDOT":0},{"OBJECT_NAME":"STRIX-4","OBJECT_ID":"2024-137A","EPOCH":"2026-07-12T21:24:07.930944","CLASSIFICATION_TYPE":"U","MEAN_MOTION":15.33265529,"ECCENTRICITY":0.0015863,"INCLINATION":43.0146,"RA_OF_ASC_NODE":138.6838,"ARG_OF_PERICENTER":115.6822,"MEAN_ANOMALY":244.5672,"EPHEMERIS_TYPE":0,"NORAD_CAT_ID":60352,"ELEMENT_SET_NO":999,"REV_AT_EPOCH":10796,"BSTAR":0.00037042,"MEAN_MOTION_DOT":0.00011942,"MEAN_MOTION_DDOT":0},{"OBJECT_NAME":"STRIX-2","OBJECT_ID":"2024-248A","EPOCH":"2026-07-12T20:48:51.084288","CLASSIFICATION_TYPE":"U","MEAN_MOTION":15.09180384,"ECCENTRICITY":0.0013495,"INCLINATION":97.6297,"RA_OF_ASC_NODE":149.3644,"ARG_OF_PERICENTER":244.3892,"MEAN_ANOMALY":115.5942,"EPHEMERIS_TYPE":0,"NORAD_CAT_ID":62406,"ELEMENT_SET_NO":999,"REV_AT_EPOCH":8546,"BSTAR":0.00021123,"MEAN_MOTION_DOT":0.00003297,"MEAN_MOTION_DDOT":0},{"OBJECT_NAME":"STRIX-5","OBJECT_ID":"2025-229A","EPOCH":"2026-07-12T06:18:52.818912","CLASSIFICATION_TYPE":"U","MEAN_MOTION":15.04576592,"ECCENTRICITY":0.0037569,"INCLINATION":41.9269,"RA_OF_ASC_NODE":148.3292,"ARG_OF_PERICENTER":218.7637,"MEAN_ANOMALY":141.0492,"EPHEMERIS_TYPE":0,"NORAD_CAT_ID":65971,"ELEMENT_SET_NO":999,"REV_AT_EPOCH":4075,"BSTAR":0.00012932,"MEAN_MOTION_DOT":0.00001676,"MEAN_MOTION_DDOT":0},{"OBJECT_NAME":"STRIX-6","OBJECT_ID":"2026-056A","EPOCH":"2026-07-12T02:31:54.789600","CLASSIFICATION_TYPE":"U","MEAN_MOTION":15.00320808,"ECCENTRICITY":0.00165845,"INCLINATION":50.2816,"RA_OF_ASC_NODE":231.9915,"ARG_OF_PERICENTER":339.2721,"MEAN_ANOMALY":20.7554,"EPHEMERIS_TYPE":0,"NORAD_CAT_ID":68291,"ELEMENT_SET_NO":999,"REV_AT_EPOCH":1701,"BSTAR":0.00012322905,"MEAN_MOTION_DOT":0.00001299,"MEAN_MOTION_DDOT":0},{"OBJECT_NAME":"STRIX-7","OBJECT_ID":"2026-112A","EPOCH":"2026-07-12T20:28:40.474272","CLASSIFICATION_TYPE":"U","MEAN_MOTION":15.01598732,"ECCENTRICITY":0.0024466,"INCLINATION":44.908,"RA_OF_ASC_NODE":57.6303,"ARG_OF_PERICENTER":194.9078,"MEAN_ANOMALY":165.1074,"EPHEMERIS_TYPE":0,"NORAD_CAT_ID":69177,"ELEMENT_SET_NO":999,"REV_AT_EPOCH":773,"BSTAR":0.00018341,"MEAN_MOTION_DOT":0.00002195,"MEAN_MOTION_DDOT":0},{"OBJECT_NAME":"STRIX-8","OBJECT_ID":"2026-146A","EPOCH":"2026-07-12T19:53:32.097408","CLASSIFICATION_TYPE":"U","MEAN_MOTION":15.04422405,"ECCENTRICITY":0.0007535,"INCLINATION":41.9901,"RA_OF_ASC_NODE":26.2015,"ARG_OF_PERICENTER":6.4469,"MEAN_ANOMALY":353.6454,"EPHEMERIS_TYPE":0,"NORAD_CAT_ID":69701,"ELEMENT_SET_NO":999,"REV_AT_EPOCH":242,"BSTAR":0.00019548,"MEAN_MOTION_DOT":0.00002588,"MEAN_MOTION_DDOT":0}]}
