STRIX-1                 
1 53815U 22113A   26193.84423024  .00018819  00000+0  45871-3 0  9993
2 53815  97.4486 256.3432 0005396 138.2337 221.9322 15.40935236211392
STRIX-3                 
1 59224U 24047A   26193.85955975  .00005653  00000+0  26693-3 0  9990
2 59224  97.6628 169.9221 0012234 343.4364  16.6469 15.19789468128642
STRIX-4                 
1 60352U 24137A   26193.89175846  .00011942  00000+0  37042-3 0  9997
2 60352  43.0146 138.6838 0015863 115.6822 244.5672 15.33265529107965
STRIX-2                 
1 62406U 24248A   26193.86725792  .00003297  00000+0  21123-3 0  9997
2 62406  97.6297 149.3644 0013495 244.3892 115.5942 15.09180384 85464
STRIX-5                 
1 65971U 25229A   26193.26311133  .00001676  00000+0  12932-3 0  9998
2 65971  41.9269 148.3292 0037569 218.7637 141.0492 15.04576592 40755
STRIX-6                 
1 68291U 26056A   26193.10549525  .00001299  00000+0  12323-3 0  9991
2 68291  50.2816 231.9915 0016584 339.2721  20.7554 15.00320808 17010
STRIX-7                 
1 69177U 26112A   26193.85324623  .00002195  00000+0  18341-3 0  9992
2 69177  44.9080  57.6303 0024466 194.9078 165.1074 15.01598732  7733
STRIX-8                 
1 69701U 26146A   26193.82884372  .00002588  00000+0  19548-3 0  9997
2 69701  41.9901  26.2015 0007535   6.4469 353.6454 15.04422405  2429
